CCSDS_OMM_VERS = 2.0
CREATION_DATE  = 
ORIGINATOR     = 

OBJECT_NAME    = H-2A R/B
OBJECT_ID      = 2006-002B
CENTER_NAME    = EARTH
REF_FRAME      = TEME
TIME_SYSTEM    = UTC
MEAN_ELEMENT_THEORY = SGP/SGP4

EPOCH          = 2026-04-04T23:57:57.436416
MEAN_MOTION    = 15.17060462
ECCENTRICITY   = .00525061
INCLINATION    = 98.2467
RA_OF_ASC_NODE = 244.3046
ARG_OF_PERICENTER = 151.3054
MEAN_ANOMALY   = 209.1084

EPHEMERIS_TYPE = 0
CLASSIFICATION_TYPE = U
NORAD_CAT_ID   = 28932
ELEMENT_SET_NO = 999
REV_AT_EPOCH   = 9842
BSTAR          = .61550061E-3
MEAN_MOTION_DOT = .12555E-3
MEAN_MOTION_DDOT = 0

CCSDS_OMM_VERS = 2.0
CREATION_DATE  = 
ORIGINATOR     = 

OBJECT_NAME    = RESURS-DK 1
OBJECT_ID      = 2006-021A
CENTER_NAME    = EARTH
REF_FRAME      = TEME
TIME_SYSTEM    = UTC
MEAN_ELEMENT_THEORY = SGP/SGP4

EPOCH          = 2026-04-05T05:57:08.330112
MEAN_MOTION    = 15.12915812
ECCENTRICITY   = .00020601
INCLINATION    = 69.9329
RA_OF_ASC_NODE = 168.3203
ARG_OF_PERICENTER = 32.7151
MEAN_ANOMALY   = 327.4142

EPHEMERIS_TYPE = 0
CLASSIFICATION_TYPE = U
NORAD_CAT_ID   = 29228
ELEMENT_SET_NO = 999
REV_AT_EPOCH   = 9154
BSTAR          = .19855547E-3
MEAN_MOTION_DOT = .3399E-4
MEAN_MOTION_DDOT = 0

CCSDS_OMM_VERS = 2.0
CREATION_DATE  = 
ORIGINATOR     = 

OBJECT_NAME    = CZ-4B R/B
OBJECT_ID      = 2006-046C
CENTER_NAME    = EARTH
REF_FRAME      = TEME
TIME_SYSTEM    = UTC
MEAN_ELEMENT_THEORY = SGP/SGP4

EPOCH          = 2026-04-05T03:00:09.925632
MEAN_MOTION    = 15.17196776
ECCENTRICITY   = .00333582
INCLINATION    = 97.5536
RA_OF_ASC_NODE = 139.9601
ARG_OF_PERICENTER = 173.2345
MEAN_ANOMALY   = 186.9346

EPHEMERIS_TYPE = 0
CLASSIFICATION_TYPE = U
NORAD_CAT_ID   = 29507
ELEMENT_SET_NO = 999
REV_AT_EPOCH   = 6405
BSTAR          = .33024274E-3
MEAN_MOTION_DOT = .6587E-4
MEAN_MOTION_DDOT = 0

CCSDS_OMM_VERS = 2.0
CREATION_DATE  = 
ORIGINATOR     = 

OBJECT_NAME    = CZ-2C R/B
OBJECT_ID      = 2007-010B
CENTER_NAME    = EARTH
REF_FRAME      = TEME
TIME_SYSTEM    = UTC
MEAN_ELEMENT_THEORY = SGP/SGP4

EPOCH          = 2026-04-05T06:51:19.177632
MEAN_MOTION    = 14.20256773
ECCENTRICITY   = .0058394
INCLINATION    = 98.4006
RA_OF_ASC_NODE = 207.2350
ARG_OF_PERICENTER = 215.9362
MEAN_ANOMALY   = 143.7882

EPHEMERIS_TYPE = 0
CLASSIFICATION_TYPE = U
NORAD_CAT_ID   = 31114
ELEMENT_SET_NO = 999
REV_AT_EPOCH   = 98349
BSTAR          = .11699714E-3
MEAN_MOTION_DOT = .213E-5
MEAN_MOTION_DDOT = 0

CCSDS_OMM_VERS = 2.0
CREATION_DATE  = 
ORIGINATOR     = 

OBJECT_NAME    = COSMO-SKYMED 1
OBJECT_ID      = 2007-023A
CENTER_NAME    = EARTH
REF_FRAME      = TEME
TIME_SYSTEM    = UTC
MEAN_ELEMENT_THEORY = SGP/SGP4

EPOCH          = 2026-04-05T06:34:25.473216
MEAN_MOTION    = 14.96746436
ECCENTRICITY   = .00016564
INCLINATION    = 97.8873
RA_OF_ASC_NODE = 286.5231
ARG_OF_PERICENTER = 99.5694
MEAN_ANOMALY   = 260.5714

EPHEMERIS_TYPE = 0
CLASSIFICATION_TYPE = U
NORAD_CAT_ID   = 31598
ELEMENT_SET_NO = 999
REV_AT_EPOCH   = 1888
BSTAR          = .46831588E-3
MEAN_MOTION_DOT = .5296E-4
MEAN_MOTION_DDOT = 0

CCSDS_OMM_VERS = 2.0
CREATION_DATE  = 
ORIGINATOR     = 

OBJECT_NAME    = COSMOS 2428
OBJECT_ID      = 2007-029A
CENTER_NAME    = EARTH
REF_FRAME      = TEME
TIME_SYSTEM    = UTC
MEAN_ELEMENT_THEORY = SGP/SGP4

EPOCH          = 2026-04-05T07:05:06.827424
MEAN_MOTION    = 14.12948974
ECCENTRICITY   = .00096959
INCLINATION    = 70.9420
RA_OF_ASC_NODE = 147.5034
ARG_OF_PERICENTER = 249.4024
MEAN_ANOMALY   = 110.6058

EPHEMERIS_TYPE = 0
CLASSIFICATION_TYPE = U
NORAD_CAT_ID   = 31792
ELEMENT_SET_NO = 999
REV_AT_EPOCH   = 96785
BSTAR          = .8543122E-5
MEAN_MOTION_DOT = -.32E-6
MEAN_MOTION_DDOT = 0

CCSDS_OMM_VERS = 2.0
CREATION_DATE  = 
ORIGINATOR     = 

OBJECT_NAME    = SL-16 R/B
OBJECT_ID      = 2007-029B
CENTER_NAME    = EARTH
REF_FRAME      = TEME
TIME_SYSTEM    = UTC
MEAN_ELEMENT_THEORY = SGP/SGP4

EPOCH          = 2026-04-05T05:18:01.193760
MEAN_MOTION    = 14.14843880
ECCENTRICITY   = .00029133
INCLINATION    = 70.9738
RA_OF_ASC_NODE = 116.6153
ARG_OF_PERICENTER = 276.4717
MEAN_ANOMALY   = 160.5152

EPHEMERIS_TYPE = 0
CLASSIFICATION_TYPE = U
NORAD_CAT_ID   = 31793
ELEMENT_SET_NO = 999
REV_AT_EPOCH   = 96912
BSTAR          = -.40779901E-4
MEAN_MOTION_DOT = -.127E-5
MEAN_MOTION_DDOT = 0

CCSDS_OMM_VERS = 2.0
CREATION_DATE  = 
ORIGINATOR     = 

OBJECT_NAME    = KORONAS-FOTON
OBJECT_ID      = 2009-003A
CENTER_NAME    = EARTH
REF_FRAME      = TEME
TIME_SYSTEM    = UTC
MEAN_ELEMENT_THEORY = SGP/SGP4

EPOCH          = 2026-04-05T03:31:53.237280
MEAN_MOTION    = 15.44107624
ECCENTRICITY   = .00114093
INCLINATION    = 82.4289
RA_OF_ASC_NODE = 248.3526
ARG_OF_PERICENTER = 63.5032
MEAN_ANOMALY   = 296.7385

EPHEMERIS_TYPE = 0
CLASSIFICATION_TYPE = U
NORAD_CAT_ID   = 33504
ELEMENT_SET_NO = 999
REV_AT_EPOCH   = 94982
BSTAR          = .37323034E-3
MEAN_MOTION_DOT = .17158E-3
MEAN_MOTION_DDOT = 0

CCSDS_OMM_VERS = 2.0
CREATION_DATE  = 
ORIGINATOR     = 

OBJECT_NAME    = CZ-2C R/B
OBJECT_ID      = 2011-030B
CENTER_NAME    = EARTH
REF_FRAME      = TEME
TIME_SYSTEM    = UTC
MEAN_ELEMENT_THEORY = SGP/SGP4

EPOCH          = 2026-04-05T07:31:14.068128
MEAN_MOTION    = 14.81320163
ECCENTRICITY   = .00509282
INCLINATION    = 97.8590
RA_OF_ASC_NODE = 52.0535
ARG_OF_PERICENTER = 263.6264
MEAN_ANOMALY   = 257.9435

EPHEMERIS_TYPE = 0
CLASSIFICATION_TYPE = U
NORAD_CAT_ID   = 37731
ELEMENT_SET_NO = 999
REV_AT_EPOCH   = 79403
BSTAR          = .25343792E-3
MEAN_MOTION_DOT = .1967E-4
MEAN_MOTION_DDOT = 0

CCSDS_OMM_VERS = 2.0
CREATION_DATE  = 
ORIGINATOR     = 

OBJECT_NAME    = H-2A R/B
OBJECT_ID      = 2012-025E
CENTER_NAME    = EARTH
REF_FRAME      = TEME
TIME_SYSTEM    = UTC
MEAN_ELEMENT_THEORY = SGP/SGP4

EPOCH          = 2026-04-05T03:52:27.545088
MEAN_MOTION    = 14.95359059
ECCENTRICITY   = .00433546
INCLINATION    = 98.4775
RA_OF_ASC_NODE = 64.3387
ARG_OF_PERICENTER = 225.1948
MEAN_ANOMALY   = 134.5743

EPHEMERIS_TYPE = 0
CLASSIFICATION_TYPE = U
NORAD_CAT_ID   = 38341
ELEMENT_SET_NO = 999
REV_AT_EPOCH   = 75217
BSTAR          = .31910083E-3
MEAN_MOTION_DOT = .3517E-4
MEAN_MOTION_DDOT = 0

CCSDS_OMM_VERS = 2.0
CREATION_DATE  = 
ORIGINATOR     = 

OBJECT_NAME    = SHIJIAN-16 (SJ-16)
OBJECT_ID      = 2013-057A
CENTER_NAME    = EARTH
REF_FRAME      = TEME
TIME_SYSTEM    = UTC
MEAN_ELEMENT_THEORY = SGP/SGP4

EPOCH          = 2026-04-05T05:49:13.987200
MEAN_MOTION    = 14.92442118
ECCENTRICITY   = .00154056
INCLINATION    = 74.9708
RA_OF_ASC_NODE = 134.8208
ARG_OF_PERICENTER = 43.7863
MEAN_ANOMALY   = 316.4543

EPHEMERIS_TYPE = 0
CLASSIFICATION_TYPE = U
NORAD_CAT_ID   = 39358
ELEMENT_SET_NO = 999
REV_AT_EPOCH   = 67546
BSTAR          = .10641861E-3
MEAN_MOTION_DOT = .1064E-4
MEAN_MOTION_DDOT = 0

CCSDS_OMM_VERS = 2.0
CREATION_DATE  = 
ORIGINATOR     = 

OBJECT_NAME    = SL-4 R/B
OBJECT_ID      = 2014-021B
CENTER_NAME    = EARTH
REF_FRAME      = TEME
TIME_SYSTEM    = UTC
MEAN_ELEMENT_THEORY = SGP/SGP4

EPOCH          = 2026-04-05T07:20:07.571616
MEAN_MOTION    = 15.40203840
ECCENTRICITY   = .0094283
INCLINATION    = 51.6069
RA_OF_ASC_NODE = 207.3414
ARG_OF_PERICENTER = 200.1230
MEAN_ANOMALY   = 159.6028

EPHEMERIS_TYPE = 0
CLASSIFICATION_TYPE = U
NORAD_CAT_ID   = 39679
ELEMENT_SET_NO = 999
REV_AT_EPOCH   = 66037
BSTAR          = .4569257E-3
MEAN_MOTION_DOT = .21451E-3
MEAN_MOTION_DDOT = 0

